NORAD_CAT_ID,OBJECT_NAME,OBJECT_TYPE,EPOCH,MEAN_MOTION,ECCENTRICITY,INCLINATION,RA_OF_ASC_NODE,ARG_OF_PERICENTER,MEAN_ANOMALY,BSTAR,MEAN_MOTION_DOT,MEAN_MOTION_DDOT,TLE_LINE0,TLE_LINE1,TLE_LINE2,SEMIMAJOR_AXIS,PERIOD,APOGEE,PERIGEE,DECAYED
53399.0,STARLINK-4528,PAYLOAD,2022-09-06 06:00:00,15.4989521,0.0001320999999999,53.2172,114.9967,91.104,177.7925,-0.00032986,-0.00019134,0.0,0 STARLINK-4528,1 53399U 22097M   22249.25001157 -.00019134  00000-0 -32986-3 0  9990,2 53399  53.2172 114.9967 0001321  91.1040 177.7925 15.49895210  4679,6795.169,92.91,417.932,416.137,0.0
53399.0,STARLINK-4528,PAYLOAD,2022-09-06 14:00:01,15.49871367,0.0001193,53.2175,113.4031,80.2263,249.5946,0.00040775,0.00022747,0.0,0 STARLINK-4528,1 53399U 22097M   22249.58334491  .00022747  00000-0  40775-3 0  9993,2 53399  53.2175 113.4031 0001193  80.2263 249.5946 15.49871367  1306,6795.239000000001,92.911,417.915,416.293,0.0
53399.0,STARLINK-4528,PAYLOAD,2022-09-06 20:00:01,15.49912788,0.0001188,53.2181,112.2134,78.4657,207.1023,-0.00075229,-0.00042956,0.0,0 STARLINK-4528,1 53399U 22097M   22249.83334491 -.00042956  00000-0 -75229-3 0  9999,2 53399  53.2181 112.2134 0001188  78.4657 207.1023 15.49912788  4766,6795.118,92.908,417.79,416.176,0.0
53399.0,STARLINK-4528,PAYLOAD,2022-09-06 22:00:00,15.49998702,0.0001203,53.2181,111.8152,70.9136,319.8663,-0.0051968,-0.00286032,0.0,0 STARLINK-4528,1 53399U 22097M   22249.91667824 -.00286032  00000-0 -51968-2 0  9995,2 53399  53.2181 111.8152 0001203  70.9136 319.8663 15.49998702  1306,6794.8669999999975,92.903,417.549,415.914,0.0
53399.0,STARLINK-4528,PAYLOAD,2022-09-07 04:00:00,15.4992229,0.0001058,53.2174,110.6186,80.7541,265.7492,-0.012883,-0.00672771,0.0,0 STARLINK-4528,1 53399U 22097M   22250.16667824 -.00672771  00000-0 -12883-1 0  9995,2 53399  53.2174 110.6186 0001058  80.7541 265.7492 15.49922290  4816,6795.09,92.908,417.674,416.236,0.0
53399.0,STARLINK-4528,PAYLOAD,2022-09-07 14:00:01,15.49342576,0.0001293,53.2174,108.6239,78.0394,74.2139,-0.022164,-0.01114524,0.0,0 STARLINK-4528,1 53399U 22097M   22250.58334491 -.01114524  00000-0 -22164-1 0  9993,2 53399  53.2174 108.6239 0001293  78.0394  74.2139 15.49342576  4880,6796.785,92.943,419.529,417.771,0.0
53399.0,STARLINK-4528,PAYLOAD,2022-09-07 22:00:00,15.48538842,0.0001329,53.2174,107.0354,81.2048,130.8177,-0.022774,-0.01113223,0.0,0 STARLINK-4528,1 53399U 22097M   22250.91667824 -.01113223  00000-0 -22774-1 0  9991,2 53399  53.2174 107.0354 0001329  81.2048 130.8177 15.48538842  1300,6799.137,92.991,421.905,420.098,0.0
53399.0,STARLINK-4528,PAYLOAD,2022-09-08 14:00:01,15.46931651,0.0001117,53.2176,103.8581,86.4538,242.2157,-0.024023,-0.0112634,0.0,0 STARLINK-4528,1 53399U 22097M   22251.58334491 -.01126340  00000-0 -24023-1 0  9999,2 53399  53.2176 103.8581 0001117  86.4538 242.2157 15.46931651  1303,6803.845,93.087,426.47,424.95,0.0
53399.0,STARLINK-4528,PAYLOAD,2022-09-08 22:00:00,15.46132473,0.0001183,53.2176,102.2753,66.0219,319.5207,-0.024856,-0.011329,0.0,0 STARLINK-4528,1 53399U 22097M   22251.91667824 -.01132900  00000-0 -24856-1 0  9998,2 53399  53.2176 102.2753 0001183  66.0219 319.5207 15.46132473  5099,6806.19,93.136,428.86,427.249,0.0
53399.0,STARLINK-4528,PAYLOAD,2022-09-09 14:00:01,15.44523998,0.00013,53.2178,99.1095,76.748,59.6532,-0.026131,-0.01127339,0.0,0 STARLINK-4528,1 53399U 22097M   22252.58334491 -.01127339  00000-0 -26131-1 0  9991,2 53399  53.2178  99.1095 0001300  76.7480  59.6532 15.44523998  1300,6810.9140000000025,93.233,433.664,431.894,0.0
53399.0,STARLINK-4528,PAYLOAD,2022-09-09 20:00:01,15.43922978,0.0001246,53.2175,97.9267,69.0878,17.8884,-0.026736,-0.01129748,0.0,0 STARLINK-4528,1 53399U 22097M   22252.83334491 -.01129748  00000-0 -26736-1 0  9996,2 53399  53.2175  97.9267 0001246  69.0878  17.8884 15.43922978  5231,6812.682,93.269,435.395,433.698,0.0
53399.0,STARLINK-4528,PAYLOAD,2022-09-09 22:00:00,15.43721154,0.0001376999999999,53.2176,97.5324,74.7609,115.6203,-0.026864,-0.01127603,0.0,0 STARLINK-4528,1 53399U 22097M   22252.91667824 -.01127603  00000-0 -26864-1 0  9994,2 53399  53.2176  97.5324 0001377  74.7609 115.6203 15.43721154  1301,6813.275,93.281,436.078,434.202,0.0
53399.0,STARLINK-4528,PAYLOAD,2022-09-10 14:00:01,15.42115039,0.0001204,53.2177,94.3781,79.4652,215.9847,-0.028324,-0.0112602,0.0,0 STARLINK-4528,1 53399U 22097M   22253.58334491 -.01126020  00000-0 -28324-1 0  9994,2 53399  53.2177  94.3781 0001204  79.4652 215.9847 15.42115039  5347,6818.005,93.378,440.691,439.049,0.0
53399.0,STARLINK-4528,PAYLOAD,2022-09-10 22:00:00,15.41313727,0.0001198,53.2175,92.8068,66.7896,279.7455,-0.0291959999999999,-0.0112953,0.0,0 STARLINK-4528,1 53399U 22097M   22253.91667824 -.01129530  00000-0 -29196-1 0  9997,2 53399  53.2175  92.8068 0001198  66.7896 279.7455 15.41313727  1305,6820.368,93.427,443.05,441.416,0.0
53399.0,STARLINK-4528,PAYLOAD,2022-09-11 06:00:00,15.40524172,0.0001167999999999,53.2173,91.2347,68.1597,328.4914,-0.030516,-0.01148107,0.0,0 STARLINK-4528,1 53399U 22097M   22254.25001157 -.01148107  00000-0 -30516-1 0  9995,2 53399  53.2173  91.2347 0001168  68.1597 328.4914 15.40524172  5456,6822.698,93.475,445.36,443.766,0.0
53399.0,STARLINK-4528,PAYLOAD,2022-09-11 14:00:01,15.39705452,0.0001238,53.2175,89.6639,71.2315,14.5844,-0.0306649999999999,-0.01124886,0.0,0 STARLINK-4528,1 53399U 22097M   22254.58334491 -.01124886  00000-0 -30665-1 0  9994,2 53399  53.2175  89.6639 0001238  71.2315  14.5844 15.39705452  1309,6825.1169999999975,93.524,447.827,446.137,0.0
53399.0,STARLINK-4528,PAYLOAD,2022-09-11 22:00:00,15.38903089,0.0001371,53.2174,88.0984,67.422,66.5848,-0.031517,-0.01125827,0.0,0 STARLINK-4528,1 53399U 22097M   22254.91667824 -.01125827  00000-0 -31517-1 0  9993,2 53399  53.2174  88.0984 0001371  67.4220  66.5848 15.38903089  1300,6827.489000000001,93.573,450.29,448.418,0.0
53399.0,STARLINK-4528,PAYLOAD,2022-09-12 12:00:00,15.37498212,0.0001314,53.2174,85.3574,73.6077,52.4149,-0.033003,-0.01125784,0.0,0 STARLINK-4528,1 53399U 22097M   22255.50001157 -.01125784  00000-0 -33003-1 0  9994,2 53399  53.2174  85.3574 0001314  73.6077  52.4149 15.37498212  5646,6831.647,93.659,454.41,452.614,0.0
53399.0,STARLINK-4528,PAYLOAD,2022-09-12 14:00:01,15.37297054,0.000135,53.2175,84.9672,80.8889,146.6087,-0.03318,-0.01124538,0.0,0 STARLINK-4528,1 53399U 22097M   22255.58334491 -.01124538  00000-0 -33180-1 0  9994,2 53399  53.2175  84.9672 0001350  80.8889 146.6087 15.37297054  1309,6832.243,93.671,455.03,453.186,0.0
53399.0,STARLINK-4528,PAYLOAD,2022-09-12 22:00:00,15.36493558,0.0001301,53.2174,83.4071,74.9604,197.8342,-0.034029,-0.01123628,0.0,0 STARLINK-4528,1 53399U 22097M   22255.91667824 -.01123628  00000-0 -34029-1 0  9992,2 53399  53.2174  83.4071 0001301  74.9604 197.8342 15.36493558  1308,6834.625,93.72,457.379,455.601,0.0
53399.0,STARLINK-4528,PAYLOAD,2022-09-13 06:00:00,15.35693141,0.0001135,53.2174,81.8456,88.7917,228.3361,-0.035086,-0.01128418,0.0,0 STARLINK-4528,1 53399U 22097M   22256.25001157 -.01128418  00000-0 -35086-1 0  9997,2 53399  53.2174  81.8456 0001135  88.7917 228.3361 15.35693141  5755,6836.999,93.769,459.64,458.088,0.0
53399.0,STARLINK-4528,PAYLOAD,2022-09-13 14:00:01,15.34888911,0.0001125999999999,53.2175,80.2873,86.7224,273.7737,-0.035893,-0.01125167,0.0,0 STARLINK-4528,1 53399U 22097M   22256.58334491 -.01125167  00000-0 -35893-1 0  9997,2 53399  53.2175  80.2873 0001126  86.7224 273.7737 15.34888911  1310,6839.387,93.818,462.023,460.482,0.0
53399.0,STARLINK-4528,PAYLOAD,2022-09-13 22:00:00,15.34084754,0.0001157,53.2175,78.7329,75.99,326.9092,-0.036778,-0.01123737,0.0,0 STARLINK-4528,1 53399U 22097M   22256.91667824 -.01123737  00000-0 -36778-1 0  9997,2 53399  53.2175  78.7329 0001157  75.9900 326.9092 15.34084754  1300,6841.776999999999,93.867,464.434,462.851,0.0
53399.0,STARLINK-4528,PAYLOAD,2022-09-14 06:00:00,15.3328204,0.0001185,53.2175,77.17699999999998,76.4944,7.8442,-0.037737,-0.01123913,0.0,0 STARLINK-4528,1 53399U 22097M   22257.25001157 -.01123913  00000-0 -37737-1 0  9998,2 53399  53.2175  77.1770 0001185  76.4944   7.8442 15.33282040  5910,6844.165,93.916,466.841,465.219,0.0
53399.0,STARLINK-4528,PAYLOAD,2022-09-14 14:00:01,15.32521058,0.0001367,53.2178,75.6245,65.0775,59.7114,-0.040636,-0.01176309,0.0,0 STARLINK-4528,1 53399U 22097M   22257.58334491 -.01176309  00000-0 -40636-1 0  9993,2 53399  53.2178  75.6245 0001367  65.0775  59.7114 15.32521058  1306,6846.431,93.963,469.231,467.36,0.0
53399.0,STARLINK-4528,PAYLOAD,2022-09-14 20:00:01,15.31879223,0.0001385999999999,53.2175,74.4631,56.304,8.2285,-0.039576,-0.01127248,0.0,0 STARLINK-4528,1 53399U 22097M   22257.83334491 -.01127248  00000-0 -39576-1 0  9990,2 53399  53.2175  74.4631 0001386  56.3040   8.2285 15.31879223  6007,6848.343000000003,94.002,471.157,469.259,0.0
53399.0,STARLINK-4528,PAYLOAD,2022-09-14 22:00:00,15.316873,0.0001481,53.2179,74.0762,67.4596,96.8537,-0.040171,-0.01136455,0.0,0 STARLINK-4528,1 53399U 22097M   22257.91667824 -.01136455  00000-0 -40171-1 0  9991,2 53399  53.2179  74.0762 0001481  67.4596  96.8537 15.31687300  1301,6848.915,94.014,471.794,469.766,0.0
53399.0,STARLINK-4528,PAYLOAD,2022-09-15 14:00:01,15.30110802,0.0001419,53.2178,70.979,71.8098,168.6126,-0.043761,-0.01174615,0.0,0 STARLINK-4528,1 53399U 22097M   22258.58334491 -.01174615  00000-0 -43761-1 0  9994,2 53399  53.2178  70.9790 0001419  71.8098 168.6126 15.30110802  1302,6853.618,94.111,476.456,474.511,0.0
53399.0,STARLINK-4528,PAYLOAD,2022-09-15 22:00:00,15.29264754,0.0001363,53.2175,69.4358,63.5653,213.4931,-0.042554,-0.01117868,0.0,0 STARLINK-4528,1 53399U 22097M   22258.91667824 -.01117868  00000-0 -42554-1 0  9996,2 53399  53.2175  69.4358 0001363  63.5653 213.4931 15.29264754  1302,6856.146,94.163,478.945,477.076,0.0
